{
    "links": {
        "self": "http://www.neowsapp.com/rest/v1/neo/3385643?api_key=iIulBulltgU6a56xZRHN4H3l9WmuAYTsLGpBGhQ2"
    },
    "id": "3385643",
    "neo_reference_id": "3385643",
    "name": "(2007 RS146)",
    "designation": "2007 RS146",
    "nasa_jpl_url": "http://ssd.jpl.nasa.gov/sbdb.cgi?sstr=3385643",
    "absolute_magnitude_h": 23.3,
    "estimated_diameter": {
        "kilometers": {
            "estimated_diameter_min": 0.058150704,
            "estimated_diameter_max": 0.130028927
        },
        "meters": {
            "estimated_diameter_min": 58.1507039646,
            "estimated_diameter_max": 130.0289270043
        },
        "miles": {
            "estimated_diameter_min": 0.0361331611,
            "estimated_diameter_max": 0.0807962044
        },
        "feet": {
            "estimated_diameter_min": 190.7831555951,
            "estimated_diameter_max": 426.6041048727
        }
    },
    "is_potentially_hazardous_asteroid": false,
    "close_approach_data": [
        {
            "close_approach_date": "2007-09-06",
            "close_approach_date_full": "2007-Sep-06 10:50",
            "epoch_date_close_approach": 1189075800000,
            "relative_velocity": {
                "kilometers_per_second": "14.4433735565",
                "kilometers_per_hour": "51996.1448033136",
                "miles_per_hour": "32308.3823084812"
            },
            "miss_distance": {
                "astronomical": "0.0241720424",
                "lunar": "9.4029244936",
                "kilometers": "3616086.056589688",
                "miles": "2246931.6839581744"
            },
            "orbiting_body": "Earth"
        }
    ],
    "orbital_data": {
        "orbit_id": "9",
        "orbit_determination_date": "2017-04-06 09:05:58",
        "first_observation_date": "2007-09-15",
        "last_observation_date": "2007-10-05",
        "data_arc_in_days": 20,
        "observations_used": 25,
        "orbit_uncertainty": "9",
        "minimum_orbit_intersection": ".0241926",
        "jupiter_tisserand_invariant": "3.236",
        "epoch_osculation": "2454368.5",
        "eccentricity": ".6404383241227969",
        "semi_major_axis": "2.362833936230382",
        "inclination": "2.652793615057144",
        "ascending_node_longitude": "132.3418820635192",
        "orbital_period": "1326.625150648262",
        "perihelion_distance": ".8495845299305248",
        "perihelion_argument": "158.1341671279901",
        "aphelion_distance": "3.87608334253024",
        "perihelion_time": "2454313.058108198779",
        "mean_anomaly": "15.0450042641559",
        "mean_motion": ".2713652758837599",
        "equinox": "J2000",
        "orbit_class": {
            "orbit_class_type": "APO",
            "orbit_class_description": "Near-Earth asteroid orbits which cross the Earth’s orbit similar to that of 1862 Apollo",
            "orbit_class_range": "a (semi-major axis) > 1.0 AU; q (perihelion) < 1.017 AU"
        }
    },
    "is_sentry_object": false
}